{
  "type": "FeatureCollection",
  "features": [
    {
      "type": "Feature",
      "properties": {
        "norad_id": 41330,
        "name": "COSMOS 2514 (751)",
        "group": "glo-ops",
        "lat": 6.485776417556521,
        "lon": 136.43599164006494,
        "alt_km": 19108.43939734972,
        "timestamp": "2025-12-10T20:49:52.814667+00:00",
        "meta_object_name": "COSMOS 2514 (751)",
        "meta_object_id": "2016-008A",
        "meta_epoch": "2025-12-10T04:09:27.217152",
        "meta_mean_motion": 2.13102572,
        "meta_eccentricity": 0.0012197,
        "meta_inclination": 65.1353,
        "meta_ra_of_asc_node": 319.4918,
        "meta_arg_of_pericenter": 220.0504,
        "meta_mean_anomaly": 139.8574,
        "meta_ephemeris_type": 0,
        "meta_classification_type": "U",
        "meta_norad_cat_id": 41330,
        "meta_element_set_no": 999,
        "meta_rev_at_epoch": 7659,
        "meta_bstar": 0,
        "meta_mean_motion_dot": -5e-07,
        "meta_mean_motion_ddot": 0,
        "tle_line1": "1 41330U 16008A   25344.17323168 -.00000050  00000+0  00000+0 0  9999",
        "tle_line2": "2 41330  65.1353 319.4918 0012197 220.0504 139.8574  2.13102572 76591"
      },
      "geometry": {
        "type": "Point",
        "coordinates": [
          136.43599164006494,
          6.485776417556521
        ]
      }
    },
    {
      "type": "Feature",
      "properties": {
        "norad_id": 42939,
        "name": "COSMOS 2522 (752)",
        "group": "glo-ops",
        "lat": -53.24943687090506,
        "lon": 157.6523286531147,
        "alt_km": 19130.3807536931,
        "timestamp": "2025-12-10T20:49:52.814678+00:00",
        "meta_object_name": "COSMOS 2522 (752)",
        "meta_object_id": "2017-055A",
        "meta_epoch": "2025-12-10T00:16:43.890240",
        "meta_mean_motion": 2.13101818,
        "meta_eccentricity": 0.0006628,
        "meta_inclination": 64.076,
        "meta_ra_of_asc_node": 198.322,
        "meta_arg_of_pericenter": 225.9279,
        "meta_mean_anomaly": 134.088,
        "meta_ephemeris_type": 0,
        "meta_classification_type": "U",
        "meta_norad_cat_id": 42939,
        "meta_element_set_no": 999,
        "meta_rev_at_epoch": 6394,
        "meta_bstar": 0,
        "meta_mean_motion_dot": 4.5e-07,
        "meta_mean_motion_ddot": 0,
        "tle_line1": "1 42939U 17055A   25344.01161910  .00000045  00000+0  00000+0 0  9999",
        "tle_line2": "2 42939  64.0760 198.3220 0006628 225.9279 134.0880  2.13101818 63946"
      },
      "geometry": {
        "type": "Point",
        "coordinates": [
          157.6523286531147,
          -53.24943687090506
        ]
      }
    },
    {
      "type": "Feature",
      "properties": {
        "norad_id": 43508,
        "name": "COSMOS 2527 (756)",
        "group": "glo-ops",
        "lat": -29.63587844433352,
        "lon": 65.16542578416494,
        "alt_km": 19138.716241860817,
        "timestamp": "2025-12-10T20:49:52.814689+00:00",
        "meta_object_name": "COSMOS 2527 (756)",
        "meta_object_id": "2018-053A",
        "meta_epoch": "2025-12-10T10:35:59.703936",
        "meta_mean_motion": 2.13102031,
        "meta_eccentricity": 0.0008586,
        "meta_inclination": 65.4714,
        "meta_ra_of_asc_node": 80.2084,
        "meta_arg_of_pericenter": 224.5475,
        "meta_mean_anomaly": 135.4001,
        "meta_ephemeris_type": 0,
        "meta_classification_type": "U",
        "meta_norad_cat_id": 43508,
        "meta_element_set_no": 999,
        "meta_rev_at_epoch": 5825,
        "meta_bstar": 0,
        "meta_mean_motion_dot": -1.9e-07,
        "meta_mean_motion_ddot": 0,
        "tle_line1": "1 43508U 18053A   25344.44166324 -.00000019  00000+0  00000+0 0  9994",
        "tle_line2": "2 43508  65.4714  80.2084 0008586 224.5475 135.4001  2.13102031 58254"
      },
      "geometry": {
        "type": "Point",
        "coordinates": [
          65.16542578416494,
          -29.63587844433352
        ]
      }
    },
    {
      "type": "Feature",
      "properties": {
        "norad_id": 43687,
        "name": "COSMOS 2529 (757)",
        "group": "glo-ops",
        "lat": -59.10241687932392,
        "lon": 72.56607530022539,
        "alt_km": 19117.64226938123,
        "timestamp": "2025-12-10T20:49:52.814700+00:00",
        "meta_object_name": "COSMOS 2529 (757)",
        "meta_object_id": "2018-086A",
        "meta_epoch": "2025-12-10T01:40:33.584160",
        "meta_mean_motion": 2.13101882,
        "meta_eccentricity": 0.00072869,
        "meta_inclination": 64.2919,
        "meta_ra_of_asc_node": 198.9786,
        "meta_arg_of_pericenter": 254.1993,
        "meta_mean_anomaly": 105.7913,
        "meta_ephemeris_type": 0,
        "meta_classification_type": "U",
        "meta_norad_cat_id": 43687,
        "meta_element_set_no": 999,
        "meta_rev_at_epoch": 5525,
        "meta_bstar": 0,
        "meta_mean_motion_dot": 4.4e-07,
        "meta_mean_motion_ddot": 0,
        "tle_line1": "1 43687U 18086A   25344.06983315  .00000044  00000+0  00000+0 0  9990",
        "tle_line2": "2 43687  64.2919 198.9786 0007286 254.1993 105.7913  2.13101882 55254"
      },
      "geometry": {
        "type": "Point",
        "coordinates": [
          72.56607530022539,
          -59.10241687932392
        ]
      }
    },
    {
      "type": "Feature",
      "properties": {
        "norad_id": 44299,
        "name": "COSMOS 2534 (758)",
        "group": "glo-ops",
        "lat": 23.938290066881706,
        "lon": -148.7326586763618,
        "alt_km": 19132.505481235596,
        "timestamp": "2025-12-10T20:49:52.814711+00:00",
        "meta_object_name": "COSMOS 2534 (758)",
        "meta_object_id": "2019-030A",
        "meta_epoch": "2025-12-10T14:34:24.563136",
        "meta_mean_motion": 2.13102261,
        "meta_eccentricity": 0.00089995,
        "meta_inclination": 64.3653,
        "meta_ra_of_asc_node": 198.9649,
        "meta_arg_of_pericenter": 283.4628,
        "meta_mean_anomaly": 263.2195,
        "meta_ephemeris_type": 0,
        "meta_classification_type": "U",
        "meta_norad_cat_id": 44299,
        "meta_element_set_no": 999,
        "meta_rev_at_epoch": 5090,
        "meta_bstar": 0,
        "meta_mean_motion_dot": 4.7e-07,
        "meta_mean_motion_ddot": 0,
        "tle_line1": "1 44299U 19030A   25344.60722874  .00000047  00000+0  00000+0 0  9994",
        "tle_line2": "2 44299  64.3653 198.9649 0008999 283.4628 263.2195  2.13102261 50901"
      },
      "geometry": {
        "type": "Point",
        "coordinates": [
          -148.7326586763618,
          23.938290066881706
        ]
      }
    },
    {
      "type": "Feature",
      "properties": {
        "norad_id": 44850,
        "name": "COSMOS 2544 (759)",
        "group": "glo-ops",
        "lat": 8.701952590658479,
        "lon": 84.03026480004836,
        "alt_km": 19146.982291493205,
        "timestamp": "2025-12-10T20:49:52.814722+00:00",
        "meta_object_name": "COSMOS 2544 (759)",
        "meta_object_id": "2019-088A",
        "meta_epoch": "2025-12-09T10:44:40.843680",
        "meta_mean_motion": 2.13101756,
        "meta_eccentricity": 0.0013649,
        "meta_inclination": 65.4583,
        "meta_ra_of_asc_node": 80.0686,
        "meta_arg_of_pericenter": 249.1242,
        "meta_mean_anomaly": 110.7462,
        "meta_ephemeris_type": 0,
        "meta_classification_type": "U",
        "meta_norad_cat_id": 44850,
        "meta_element_set_no": 999,
        "meta_rev_at_epoch": 4667,
        "meta_bstar": 0,
        "meta_mean_motion_dot": -1.3e-07,
        "meta_mean_motion_ddot": 0,
        "tle_line1": "1 44850U 19088A   25343.44769495 -.00000013  00000+0  00000+0 0  9995",
        "tle_line2": "2 44850  65.4583  80.0686 0013649 249.1242 110.7462  2.13101756 46679"
      },
      "geometry": {
        "type": "Point",
        "coordinates": [
          84.03026480004836,
          8.701952590658479
        ]
      }
    },
    {
      "type": "Feature",
      "properties": {
        "norad_id": 45358,
        "name": "COSMOS 2545 (760)",
        "group": "glo-ops",
        "lat": -34.80994037746302,
        "lon": 158.42532306729368,
        "alt_km": 19108.083300055412,
        "timestamp": "2025-12-10T20:49:52.814733+00:00",
        "meta_object_name": "COSMOS 2545 (760)",
        "meta_object_id": "2020-018A",
        "meta_epoch": "2025-12-10T02:42:20.782656",
        "meta_mean_motion": 2.13102243,
        "meta_eccentricity": 0.00118681,
        "meta_inclination": 64.4713,
        "meta_ra_of_asc_node": 319.0621,
        "meta_arg_of_pericenter": 248.8052,
        "meta_mean_anomaly": 111.0655,
        "meta_ephemeris_type": 0,
        "meta_classification_type": "U",
        "meta_norad_cat_id": 45358,
        "meta_element_set_no": 999,
        "meta_rev_at_epoch": 4463,
        "meta_bstar": 0,
        "meta_mean_motion_dot": -5.1e-07,
        "meta_mean_motion_ddot": 0,
        "tle_line1": "1 45358U 20018A   25344.11274054 -.00000051  00000+0  00000+0 0  9993",
        "tle_line2": "2 45358  64.4713 319.0621 0011868 248.8052 111.0655  2.13102243 44631"
      },
      "geometry": {
        "type": "Point",
        "coordinates": [
          158.42532306729368,
          -34.80994037746302
        ]
      }
    }
  ]
}